[{"OBJECT_NAME":"SITRO-AIS 7 (FARTUSHNIY)","OBJECT_ID":"2023-091AE","EPOCH":"2026-03-09T23:03:57.724992","MEAN_MOTION":15.24163112,"ECCENTRICITY":0.00140938,"INCLINATION":97.518,"RA_OF_ASC_NODE":131.502,"ARG_OF_PERICENTER":95.9262,"MEAN_ANOMALY":264.3582,"EPHEMERIS_TYPE":0,"CLASSIFICATION_TYPE":"U","NORAD_CAT_ID":57194,"ELEMENT_SET_NO":999,"REV_AT_EPOCH":14915,"BSTAR":0.00031715122,"MEAN_MOTION_DOT":7.668e-5,"MEAN_MOTION_DDOT":0},{"OBJECT_NAME":"NOAA 16 DEB","OBJECT_ID":"2000-055RD","EPOCH":"2026-03-08T14:49:38.721792","MEAN_MOTION":15.14089507,"ECCENTRICITY":0.00084032,"INCLINATION":98.9038,"RA_OF_ASC_NODE":208.7699,"ARG_OF_PERICENTER":346.4163,"MEAN_ANOMALY":13.6837,"EPHEMERIS_TYPE":0,"CLASSIFICATION_TYPE":"U","NORAD_CAT_ID":42361,"ELEMENT_SET_NO":999,"REV_AT_EPOCH":52359,"BSTAR":0.022314151,"MEAN_MOTION_DOT":0.0043103,"MEAN_MOTION_DDOT":0}]
